[{"OBJECT_NAME":"STARLINK-34688","OBJECT_ID":"2025-223X","EPOCH":"2026-03-09T21:47:22.710336","MEAN_MOTION":15.30208727,"ECCENTRICITY":0.00010296,"INCLINATION":53.1574,"RA_OF_ASC_NODE":293.5451,"ARG_OF_PERICENTER":86.9953,"MEAN_ANOMALY":273.1165,"EPHEMERIS_TYPE":0,"CLASSIFICATION_TYPE":"U","NORAD_CAT_ID":65875,"ELEMENT_SET_NO":999,"REV_AT_EPOCH":2423,"BSTAR":0.00086801624,"MEAN_MOTION_DOT":0.00025444,"MEAN_MOTION_DDOT":0},{"OBJECT_NAME":"OBJECT D","OBJECT_ID":"2021-102D","EPOCH":"2026-03-09T14:47:14.426880","MEAN_MOTION":15.2846442,"ECCENTRICITY":0.0009157,"INCLINATION":97.3342,"RA_OF_ASC_NODE":112.2633,"ARG_OF_PERICENTER":187.6206,"MEAN_ANOMALY":172.4897,"EPHEMERIS_TYPE":0,"CLASSIFICATION_TYPE":"U","NORAD_CAT_ID":49398,"ELEMENT_SET_NO":999,"REV_AT_EPOCH":23880,"BSTAR":0.00046011,"MEAN_MOTION_DOT":0.00012697,"MEAN_MOTION_DDOT":0}]
